{
    "links": {
        "self": "http://www.neowsapp.com/rest/v1/neo/54016202?api_key=iIulBulltgU6a56xZRHN4H3l9WmuAYTsLGpBGhQ2"
    },
    "id": "54016202",
    "neo_reference_id": "54016202",
    "name": "(2020 FK)",
    "designation": "2020 FK",
    "nasa_jpl_url": "http://ssd.jpl.nasa.gov/sbdb.cgi?sstr=54016202",
    "absolute_magnitude_h": 28.325,
    "estimated_diameter": {
        "kilometers": {
            "estimated_diameter_min": 0.0057485058,
            "estimated_diameter_max": 0.0128540498
        },
        "meters": {
            "estimated_diameter_min": 5.7485058361,
            "estimated_diameter_max": 12.8540498185
        },
        "miles": {
            "estimated_diameter_min": 0.0035719548,
            "estimated_diameter_max": 0.0079871338
        },
        "feet": {
            "estimated_diameter_min": 18.8599278872,
            "estimated_diameter_max": 42.1720808065
        }
    },
    "is_potentially_hazardous_asteroid": false,
    "close_approach_data": [
        {
            "close_approach_date": "2015-06-29",
            "close_approach_date_full": "2015-Jun-29 14:51",
            "epoch_date_close_approach": 1435589460000,
            "relative_velocity": {
                "kilometers_per_second": "3.3738064879",
                "kilometers_per_hour": "12145.7033564",
                "miles_per_hour": "7546.8677327586"
            },
            "miss_distance": {
                "astronomical": "0.1413056831",
                "lunar": "54.9679107259",
                "kilometers": "21139029.210654997",
                "miles": "13135183.6649410786"
            },
            "orbiting_body": "Venus"
        },
        {
            "close_approach_date": "2015-08-18",
            "close_approach_date_full": "2015-Aug-18 07:57",
            "epoch_date_close_approach": 1439884620000,
            "relative_velocity": {
                "kilometers_per_second": "17.4728486762",
                "kilometers_per_hour": "62902.2552343769",
                "miles_per_hour": "39085.0152038271"
            },
            "miss_distance": {
                "astronomical": "0.2520740876",
                "lunar": "98.0568200764",
                "kilometers": "37709746.587153412",
                "miles": "23431749.9845726056"
            },
            "orbiting_body": "Earth"
        },
        {
            "close_approach_date": "2020-03-21",
            "close_approach_date_full": "2020-Mar-21 04:55",
            "epoch_date_close_approach": 1584766500000,
            "relative_velocity": {
                "kilometers_per_second": "10.4609621848",
                "kilometers_per_hour": "37659.4638653671",
                "miles_per_hour": "23400.1263112333"
            },
            "miss_distance": {
                "astronomical": "0.0090885332",
                "lunar": "3.5354394148",
                "kilometers": "1359625.208144284",
                "miles": "844831.9289637592"
            },
            "orbiting_body": "Earth"
        },
        {
            "close_approach_date": "2020-03-21",
            "close_approach_date_full": "2020-Mar-21 14:12",
            "epoch_date_close_approach": 1584799920000,
            "relative_velocity": {
                "kilometers_per_second": "10.1921618406",
                "kilometers_per_hour": "36691.7826259915",
                "miles_per_hour": "22798.8468211335"
            },
            "miss_distance": {
                "astronomical": "0.0092169072",
                "lunar": "3.5853769008",
                "kilometers": "1378829.685107664",
                "miles": "856765.0376032032"
            },
            "orbiting_body": "Moon"
        },
        {
            "close_approach_date": "2031-12-19",
            "close_approach_date_full": "2031-Dec-19 09:44",
            "epoch_date_close_approach": 1955439840000,
            "relative_velocity": {
                "kilometers_per_second": "10.3580818776",
                "kilometers_per_hour": "37289.0947592074",
                "miles_per_hour": "23169.9933519086"
            },
            "miss_distance": {
                "astronomical": "0.0645478999",
                "lunar": "25.1091330611",
                "kilometers": "9656228.338013213",
                "miles": "6000102.0608118194"
            },
            "orbiting_body": "Mars"
        }
    ],
    "orbital_data": {
        "orbit_id": "1",
        "orbit_determination_date": "2020-03-17 14:42:49",
        "first_observation_date": "2020-03-16",
        "last_observation_date": "2020-03-17",
        "data_arc_in_days": 1,
        "observations_used": 21,
        "orbit_uncertainty": "7",
        "minimum_orbit_intersection": ".00867459",
        "jupiter_tisserand_invariant": "4.726",
        "epoch_osculation": "2459000.5",
        "eccentricity": ".3828136157396471",
        "semi_major_axis": "1.377450728789239",
        "inclination": "4.158847600087888",
        "ascending_node_longitude": "354.2758839875602",
        "orbital_period": "590.4899855887201",
        "perihelion_distance": ".8501438347982181",
        "perihelion_argument": "249.0935831951324",
        "aphelion_distance": "1.904757622780259",
        "perihelion_time": "2458976.988872206341",
        "mean_anomaly": "14.33386884161744",
        "mean_motion": ".6096631759827036",
        "equinox": "J2000",
        "orbit_class": {
            "orbit_class_type": "APO",
            "orbit_class_description": "Near-Earth asteroid orbits which cross the Earth’s orbit similar to that of 1862 Apollo",
            "orbit_class_range": "a (semi-major axis) > 1.0 AU; q (perihelion) < 1.017 AU"
        }
    },
    "is_sentry_object": false
}